{"type":"FeatureCollection","features":[{"type":"Feature","properties":{"name":"ijen-crater","slug":"ijen-crater","description":"<![CDATA[]]>","source":"AllTrails.com"},"geometry":{"type":"LineString","coordinates":[[114.22426,-8.07316,1880.18],[114.22427,-8.07314,1880.28],[114.22436,-8.07308,1881.63],[114.22446,-8.07298,1882.3],[114.22458,-8.07292,1884.46],[114.22466,-8.07286,1885.62],[114.22473,-8.0728,1886.35],[114.22486,-8.07272,1885.14],[114.22498,-8.07268,1885.09],[114.22512,-8.0726,1884.2],[114.22517,-8.0725,1883.22],[114.22525,-8.07241,1878.91],[114.22531,-8.07235,1876.73],[114.22535,-8.07231,1875.75],[114.22535,-8.07231,1875.75],[114.22542,-8.07224,1874.44],[114.2255,-8.07217,1872.74],[114.2256,-8.07212,1872.7],[114.22574,-8.07206,1872.69],[114.22587,-8.07199,1871.75],[114.22599,-8.07193,1871.76],[114.22603,-8.07192,1872.28],[114.22616,-8.07192,1875.95],[114.22621,-8.07193,1877.58],[114.22625,-8.07193,1878.04],[114.22639,-8.07194,1880.6],[114.22652,-8.07193,1881.51],[114.22661,-8.07192,1881.83],[114.22673,-8.07191,1883.25],[114.22681,-8.07191,1885.26],[114.22687,-8.07191,1886.77],[114.22693,-8.0719,1887.58],[114.22707,-8.07188,1888.82],[114.22716,-8.07187,1889.84],[114.22718,-8.07186,1889.65],[114.22728,-8.07184,1892.12],[114.22735,-8.07181,1894.14],[114.22744,-8.07178,1897.53],[114.22746,-8.07178,1898.58],[114.22754,-8.07174,1900.61],[114.2276,-8.07172,1901.66],[114.22768,-8.07165,1900.22],[114.22778,-8.07158,1896.61],[114.22788,-8.07153,1897.15],[114.228,-8.07151,1901.52],[114.22821,-8.07148,1909.47],[114.2283,-8.07148,1913.69],[114.22843,-8.0715,1920.23],[114.22863,-8.07145,1926.15],[114.2287,-8.0714,1927.47],[114.22879,-8.07139,1931.39],[114.22891,-8.07136,1936.24],[114.22899,-8.07132,1938.07],[114.2291,-8.07127,1941.01],[114.22917,-8.07122,1943.05],[114.22923,-8.07113,1944.29],[114.22932,-8.07107,1944.99],[114.22939,-8.07102,1945.8],[114.22946,-8.07093,1946.54],[114.2295,-8.07086,1946.11],[114.22955,-8.07074,1943.72],[114.22967,-8.07062,1944.17],[114.22977,-8.07055,1945.89],[114.22977,-8.07055,1945.89],[114.2298,-8.07053,1946.1],[114.22991,-8.07052,1948.55],[114.23002,-8.0705,1951.28],[114.2301,-8.07046,1953.8],[114.23021,-8.07041,1957.55],[114.23034,-8.07043,1960.98],[114.2305,-8.07052,1962.71],[114.23064,-8.07055,1963.67],[114.23078,-8.07053,1964.97],[114.2309,-8.07048,1966.15],[114.231,-8.0704,1967.58],[114.2311,-8.07035,1968.67],[114.23118,-8.07029,1969.52],[114.23119,-8.07017,1972.93],[114.23116,-8.06999,1978.32],[114.2312,-8.06989,1981.56],[114.23127,-8.06979,1984.8],[114.23138,-8.06975,1986.1],[114.23147,-8.06963,1989.54],[114.23151,-8.06955,1992.54],[114.23162,-8.06948,1995.29],[114.23167,-8.06943,1997.2],[114.23171,-8.06934,1998.16],[114.2317,-8.06915,2001.63],[114.2317,-8.06897,2002.85],[114.23168,-8.06885,2004.38],[114.23166,-8.06874,2006.09],[114.23173,-8.06869,2007.19],[114.23184,-8.06868,2008.11],[114.2319,-8.06863,2010.57],[114.23192,-8.06855,2012.63],[114.23193,-8.06851,2013.5],[114.23196,-8.06846,2014.85],[114.232,-8.0684,2016.62],[114.23202,-8.06832,2018.64],[114.23203,-8.06826,2018.91],[114.23203,-8.06826,2018.91],[114.23204,-8.06821,2019.23],[114.23207,-8.06812,2020.33],[114.2321,-8.06799,2020.29],[114.23214,-8.06792,2020.26],[114.2322,-8.06785,2020.82],[114.23224,-8.06779,2020.83],[114.23235,-8.06771,2022.75],[114.23245,-8.06768,2026.01],[114.23254,-8.06768,2029.43],[114.23261,-8.06764,2031.67],[114.23268,-8.06759,2033.89],[114.23281,-8.0675,2038.16],[114.23291,-8.06744,2040.66],[114.23306,-8.06736,2045.67],[114.23318,-8.06726,2051.35],[114.23325,-8.06721,2055.64],[114.23339,-8.06711,2060.62],[114.23347,-8.06704,2062.29],[114.23355,-8.06698,2064.72],[114.23366,-8.06692,2068.47],[114.23375,-8.06688,2071.43],[114.23389,-8.06681,2076.94],[114.23398,-8.06674,2081.04],[114.23405,-8.06666,2084.74],[114.23414,-8.06659,2087.92],[114.23425,-8.06652,2092.25],[114.23433,-8.06649,2095.85],[114.23442,-8.0665,2099.23],[114.23456,-8.06652,2103.42],[114.23469,-8.06648,2108.36],[114.23476,-8.06642,2110.83],[114.23481,-8.06638,2112.09],[114.23483,-8.06634,2113.03],[114.23479,-8.06628,2113.39],[114.23485,-8.06624,2115.22],[114.23496,-8.0662,2118.52],[114.23509,-8.06617,2123.15],[114.2352,-8.06618,2126.32],[114.23531,-8.06617,2130.16],[114.23543,-8.06611,2135.97],[114.23553,-8.06605,2141.57],[114.23554,-8.06599,2144.27],[114.23555,-8.0659,2148.16],[114.23555,-8.0659,2148.16],[114.23559,-8.06586,2151.5],[114.23566,-8.06577,2158.2],[114.23566,-8.06569,2161.11],[114.23568,-8.06565,2163.27],[114.23572,-8.06555,2167.78],[114.23579,-8.06556,2169.63],[114.23589,-8.06556,2171.27],[114.23597,-8.06556,2171.81],[114.23602,-8.06549,2173.45],[114.23602,-8.06543,2174.46],[114.23603,-8.06538,2175.39],[114.23605,-8.06534,2176.27],[114.23614,-8.0653,2178.42],[114.2362,-8.0653,2180.12],[114.2363,-8.0653,2182.96],[114.23641,-8.06528,2186.55],[114.23649,-8.06525,2186.19],[114.2366,-8.06522,2185.63],[114.23678,-8.06518,2185.35],[114.23686,-8.06514,2186.07],[114.23683,-8.06507,2188.56],[114.23686,-8.06496,2191.84],[114.23686,-8.06488,2194.31],[114.23687,-8.06481,2196.59],[114.23688,-8.06477,2198.04],[114.23689,-8.06476,2198.54],[114.2369,-8.06472,2200.17],[114.23692,-8.06467,2203.45],[114.23695,-8.06457,2209.8],[114.23701,-8.0645,2213.94],[114.23703,-8.06447,2215.61],[114.23704,-8.06446,2216.16],[114.23709,-8.06442,2218.15],[114.23713,-8.06436,2221.16],[114.23723,-8.06431,2224.17],[114.23731,-8.06426,2226.43],[114.23738,-8.06422,2228.82],[114.23744,-8.06418,2231.76],[114.23754,-8.06411,2233.91],[114.23759,-8.06408,2234.73],[114.23763,-8.06407,2235.23],[114.23776,-8.06403,2237.72],[114.23786,-8.06399,2240.44],[114.23794,-8.06393,2244.95],[114.23798,-8.06389,2248.29],[114.23809,-8.0638,2253.53],[114.23819,-8.06375,2256.21],[114.23825,-8.06375,2256.75],[114.23829,-8.06376,2256.78],[114.23835,-8.06376,2257.32],[114.23835,-8.06376,2257.32],[114.23834,-8.06371,2258.86],[114.23834,-8.06369,2259.51],[114.23836,-8.06367,2260.36],[114.2384,-8.06366,2261.09],[114.23847,-8.06364,2262.49],[114.2385,-8.06363,2263.15],[114.23852,-8.06361,2264.09],[114.23854,-8.0636,2264.96],[114.23862,-8.06358,2267.61],[114.23871,-8.06358,2272.47],[114.23881,-8.06357,2278.55],[114.23894,-8.06357,2288.24],[114.23905,-8.06353,2301.83],[114.23913,-8.06356,2308.81],[114.23911,-8.06369,2299.4],[114.23908,-8.06378,2290.16],[114.23914,-8.06392,2287.61],[114.23918,-8.06403,2285.08],[114.23923,-8.0641,2283.97],[114.23923,-8.06422,2278.07],[114.23925,-8.0643,2275.6],[114.23929,-8.06442,2272.31],[114.23939,-8.06457,2272.99],[114.23951,-8.06467,2274.57],[114.23959,-8.06475,2274.13],[114.23965,-8.06477,2274.83],[114.23976,-8.06475,2277.1],[114.23987,-8.06468,2279.31],[114.23998,-8.06464,2280.04],[114.24008,-8.06464,2278.7],[114.24019,-8.06463,2277.58],[114.24029,-8.06462,2276.83],[114.24043,-8.06464,2276.4],[114.24058,-8.06463,2278.16],[114.24065,-8.06457,2284.65],[114.24072,-8.06462,2283.86],[114.24077,-8.06472,2276.3],[114.24084,-8.06476,2274.79],[114.24096,-8.06471,2279.51],[114.24104,-8.06471,2280.26],[114.24119,-8.0648,2280.42],[114.24133,-8.06483,2283.57],[114.24156,-8.06472,2292.26],[114.24171,-8.06474,2289.51],[114.24183,-8.06477,2286.96],[114.24189,-8.06472,2289.49],[114.24193,-8.06468,2290.81],[114.242,-8.06464,2291.57],[114.24204,-8.06464,2291.08],[114.24212,-8.06472,2286.57],[114.24218,-8.06478,2283.37],[114.24227,-8.0648,2282.12],[114.24232,-8.0647,2286.17],[114.24234,-8.06463,2291.29],[114.24232,-8.0646,2293],[114.24233,-8.06459,2293.94],[114.24242,-8.06455,2299.85],[114.24253,-8.06445,2313.53],[114.24269,-8.06442,2315.63],[114.24279,-8.06444,2315.01],[114.24293,-8.06448,2311.71],[114.24303,-8.06454,2308.15],[114.24313,-8.06457,2308.82],[114.24319,-8.06461,2308.53],[114.24323,-8.06466,2307.16],[114.24326,-8.06468,2307.02],[114.2433,-8.0647,2307.16],[114.24334,-8.0647,2308.21],[114.2434,-8.06471,2308.54],[114.24346,-8.06476,2306.75],[114.24354,-8.06481,2305.7],[114.24362,-8.06486,2305.21],[114.24368,-8.0649,2304.56],[114.24375,-8.06491,2305.39],[114.24383,-8.06492,2306.4],[114.2439,-8.0649,2308.13],[114.24401,-8.06487,2307.46],[114.24415,-8.06475,2309.35],[114.24424,-8.06466,2307.48],[114.24445,-8.06443,2304.32],[114.24458,-8.06412,2311.81],[114.24469,-8.06396,2309.44],[114.24487,-8.0638,2309.68],[114.24507,-8.06343,2304.07],[114.24539,-8.06326,2306.49],[114.24577,-8.06322,2312.52],[114.24576,-8.06319,2312.28],[114.24581,-8.06319,2313.47],[114.24594,-8.06315,2314.17],[114.24604,-8.06312,2315.04],[114.24612,-8.0631,2316.08],[114.24641,-8.06308,2317.17],[114.24648,-8.06304,2319.91],[114.24676,-8.06278,2343.83],[114.24697,-8.06248,2350.86],[114.247,-8.06225,2353.26],[114.24707,-8.06211,2350.12],[114.24742,-8.0617,2340.26],[114.24765,-8.06141,2345.55],[114.24778,-8.06119,2355.02],[114.2478,-8.06111,2357.02],[114.2478,-8.06111,2357.02],[114.24784,-8.06099,2359.13],[114.24794,-8.06081,2360.63],[114.24798,-8.06067,2363.69],[114.24798,-8.06042,2369.52],[114.24803,-8.06015,2370.93],[114.2481,-8.05993,2369.67],[114.24811,-8.05982,2369.4],[114.24808,-8.0595,2369.38],[114.248,-8.05919,2372.8],[114.24798,-8.05907,2373.88],[114.24801,-8.05876,2375.46],[114.24798,-8.05859,2373.76],[114.24804,-8.05814,2367.7],[114.24804,-8.05796,2367.09],[114.24806,-8.0579,2367.58],[114.24806,-8.0579,2367.58],[114.24809,-8.05783,2367.94],[114.24812,-8.05753,2369.12],[114.2481,-8.05742,2369.45],[114.24806,-8.05727,2369.84],[114.24805,-8.05721,2369.81],[114.24799,-8.05691,2370.08],[114.2478,-8.05612,2370.87],[114.24764,-8.05578,2373.66],[114.24757,-8.05566,2376.43],[114.2475,-8.05548,2379.46],[114.24725,-8.05518,2375.74],[114.24711,-8.05504,2375.43],[114.24696,-8.05494,2375.52],[114.24691,-8.0549,2375.12],[114.24691,-8.0549,2375.12],[114.24685,-8.05484,2374.56],[114.24677,-8.05472,2373.98],[114.24672,-8.05467,2373.63],[114.24648,-8.05451,2374.97],[114.24612,-8.05421,2372.72],[114.24592,-8.05412,2367.69],[114.24558,-8.05397,2365.87],[114.24544,-8.0539,2362.74],[114.24558,-8.05397,2365.87],[114.24592,-8.05412,2367.69],[114.24612,-8.05421,2372.72],[114.24648,-8.05451,2374.97],[114.24672,-8.05467,2373.63],[114.24677,-8.05472,2373.98],[114.24685,-8.05484,2374.56],[114.24691,-8.0549,2375.12],[114.24691,-8.0549,2375.12],[114.24696,-8.05494,2375.52],[114.24711,-8.05504,2375.43],[114.24725,-8.05518,2375.74],[114.2475,-8.05548,2379.46],[114.24757,-8.05566,2376.43],[114.24764,-8.05578,2373.66],[114.2478,-8.05612,2370.87],[114.24799,-8.05691,2370.08],[114.24805,-8.05721,2369.81],[114.24806,-8.05727,2369.84],[114.2481,-8.05742,2369.45],[114.24812,-8.05753,2369.12],[114.24809,-8.05783,2367.94],[114.24806,-8.0579,2367.58],[114.24806,-8.0579,2367.58],[114.24804,-8.05796,2367.09],[114.24804,-8.05814,2367.7],[114.24798,-8.05859,2373.76],[114.24801,-8.05876,2375.46],[114.24798,-8.05907,2373.88],[114.248,-8.05919,2372.8],[114.24808,-8.0595,2369.38],[114.24811,-8.05982,2369.4],[114.2481,-8.05993,2369.67],[114.24803,-8.06015,2370.93],[114.24798,-8.06042,2369.52],[114.24798,-8.06067,2363.69],[114.24794,-8.06081,2360.63],[114.24784,-8.06099,2359.13],[114.2478,-8.06111,2357.02],[114.2478,-8.06111,2357.02],[114.24778,-8.06119,2355.02],[114.24765,-8.06141,2345.55],[114.24742,-8.0617,2340.26],[114.24707,-8.06211,2350.12],[114.247,-8.06225,2353.26],[114.24697,-8.06248,2350.86],[114.24676,-8.06278,2343.83],[114.24648,-8.06304,2319.91],[114.24641,-8.06308,2317.17],[114.24612,-8.0631,2316.08],[114.24604,-8.06312,2315.04],[114.24594,-8.06315,2314.17],[114.24581,-8.06319,2313.47],[114.24576,-8.06319,2312.28],[114.24577,-8.06322,2312.52],[114.24539,-8.06326,2306.49],[114.24507,-8.06343,2304.07],[114.24487,-8.0638,2309.68],[114.24469,-8.06396,2309.44],[114.24458,-8.06412,2311.81],[114.24445,-8.06443,2304.32],[114.24424,-8.06466,2307.48],[114.24415,-8.06475,2309.35],[114.24401,-8.06487,2307.46],[114.2439,-8.0649,2308.13],[114.24383,-8.06492,2306.4],[114.24375,-8.06491,2305.39],[114.24368,-8.0649,2304.56],[114.24362,-8.06486,2305.21],[114.24354,-8.06481,2305.7],[114.24346,-8.06476,2306.75],[114.2434,-8.06471,2308.54],[114.24334,-8.0647,2308.21],[114.2433,-8.0647,2307.16],[114.24326,-8.06468,2307.02],[114.24323,-8.06466,2307.16],[114.24319,-8.06461,2308.53],[114.24313,-8.06457,2308.82],[114.24303,-8.06454,2308.15],[114.24293,-8.06448,2311.71],[114.24279,-8.06444,2315.01],[114.24269,-8.06442,2315.63],[114.24253,-8.06445,2313.53],[114.24242,-8.06455,2299.85],[114.24233,-8.06459,2293.94],[114.24232,-8.0646,2293],[114.24234,-8.06463,2291.29],[114.24232,-8.0647,2286.17],[114.24227,-8.0648,2282.12],[114.24218,-8.06478,2283.37],[114.24212,-8.06472,2286.57],[114.24204,-8.06464,2291.08],[114.242,-8.06464,2291.57],[114.24193,-8.06468,2290.81],[114.24189,-8.06472,2289.49],[114.24183,-8.06477,2286.96],[114.24171,-8.06474,2289.51],[114.24156,-8.06472,2292.26],[114.24133,-8.06483,2283.57],[114.24119,-8.0648,2280.42],[114.24104,-8.06471,2280.26],[114.24096,-8.06471,2279.51],[114.24084,-8.06476,2274.79],[114.24077,-8.06472,2276.3],[114.24072,-8.06462,2283.86],[114.24065,-8.06457,2284.65],[114.24058,-8.06463,2278.16],[114.24043,-8.06464,2276.4],[114.24029,-8.06462,2276.83],[114.24019,-8.06463,2277.58],[114.24008,-8.06464,2278.7],[114.23998,-8.06464,2280.04],[114.23987,-8.06468,2279.31],[114.23976,-8.06475,2277.1],[114.23965,-8.06477,2274.83],[114.23959,-8.06475,2274.13],[114.23951,-8.06467,2274.57],[114.23939,-8.06457,2272.99],[114.23929,-8.06442,2272.31],[114.23925,-8.0643,2275.6],[114.23923,-8.06422,2278.07],[114.23923,-8.0641,2283.97],[114.23918,-8.06403,2285.08],[114.23914,-8.06392,2287.61],[114.23908,-8.06378,2290.16],[114.23911,-8.06369,2299.4],[114.23913,-8.06356,2308.81],[114.23905,-8.06353,2301.83],[114.23894,-8.06357,2288.24],[114.23881,-8.06357,2278.55],[114.23871,-8.06358,2272.47],[114.23862,-8.06358,2267.61],[114.23854,-8.0636,2264.96],[114.23852,-8.06361,2264.09],[114.2385,-8.06363,2263.15],[114.23847,-8.06364,2262.49],[114.2384,-8.06366,2261.09],[114.23836,-8.06367,2260.36],[114.23834,-8.06369,2259.51],[114.23834,-8.06371,2258.86],[114.23835,-8.06376,2257.32],[114.23835,-8.06376,2257.32],[114.23829,-8.06376,2256.78],[114.23825,-8.06375,2256.75],[114.23819,-8.06375,2256.21],[114.23809,-8.0638,2253.53],[114.23798,-8.06389,2248.29],[114.23794,-8.06393,2244.95],[114.23786,-8.06399,2240.44],[114.23776,-8.06403,2237.72],[114.23763,-8.06407,2235.23],[114.23759,-8.06408,2234.73],[114.23754,-8.06411,2233.91],[114.23744,-8.06418,2231.76],[114.23738,-8.06422,2228.82],[114.23731,-8.06426,2226.43],[114.23723,-8.06431,2224.17],[114.23713,-8.06436,2221.16],[114.23709,-8.06442,2218.15],[114.23704,-8.06446,2216.16],[114.23703,-8.06447,2215.61],[114.23701,-8.0645,2213.94],[114.23695,-8.06457,2209.8],[114.23692,-8.06467,2203.45],[114.2369,-8.06472,2200.17],[114.23689,-8.06476,2198.54],[114.23688,-8.06477,2198.04],[114.23687,-8.06481,2196.59],[114.23686,-8.06488,2194.31],[114.23686,-8.06496,2191.84],[114.23683,-8.06507,2188.56],[114.23686,-8.06514,2186.07],[114.23678,-8.06518,2185.35],[114.2366,-8.06522,2185.63],[114.23649,-8.06525,2186.19],[114.23641,-8.06528,2186.55],[114.2363,-8.0653,2182.96],[114.2362,-8.0653,2180.12],[114.23614,-8.0653,2178.42],[114.23605,-8.06534,2176.27],[114.23603,-8.06538,2175.39],[114.23602,-8.06543,2174.46],[114.23602,-8.06549,2173.45],[114.23597,-8.06556,2171.81],[114.23589,-8.06556,2171.27],[114.23579,-8.06556,2169.63],[114.23572,-8.06555,2167.78],[114.23568,-8.06565,2163.27],[114.23566,-8.06569,2161.11],[114.23566,-8.06577,2158.2],[114.23559,-8.06586,2151.5],[114.23555,-8.0659,2148.16],[114.23555,-8.0659,2148.16],[114.23554,-8.06599,2144.27],[114.23553,-8.06605,2141.57],[114.23543,-8.06611,2135.97],[114.23531,-8.06617,2130.16],[114.2352,-8.06618,2126.32],[114.23509,-8.06617,2123.15],[114.23496,-8.0662,2118.52],[114.23485,-8.06624,2115.22],[114.23479,-8.06628,2113.39],[114.23483,-8.06634,2113.03],[114.23481,-8.06638,2112.09],[114.23476,-8.06642,2110.83],[114.23469,-8.06648,2108.36],[114.23456,-8.06652,2103.42],[114.23442,-8.0665,2099.23],[114.23433,-8.06649,2095.85],[114.23425,-8.06652,2092.25],[114.23414,-8.06659,2087.92],[114.23405,-8.06666,2084.74],[114.23398,-8.06674,2081.04],[114.23389,-8.06681,2076.94],[114.23375,-8.06688,2071.43],[114.23366,-8.06692,2068.47],[114.23355,-8.06698,2064.72],[114.23347,-8.06704,2062.29],[114.23339,-8.06711,2060.62],[114.23325,-8.06721,2055.64],[114.23318,-8.06726,2051.35],[114.23306,-8.06736,2045.67],[114.23291,-8.06744,2040.66],[114.23281,-8.0675,2038.16],[114.23268,-8.06759,2033.89],[114.23261,-8.06764,2031.67],[114.23254,-8.06768,2029.43],[114.23245,-8.06768,2026.01],[114.23235,-8.06771,2022.75],[114.23224,-8.06779,2020.83],[114.2322,-8.06785,2020.82],[114.23214,-8.06792,2020.26],[114.2321,-8.06799,2020.29],[114.23207,-8.06812,2020.33],[114.23204,-8.06821,2019.23],[114.23203,-8.06826,2018.91],[114.23203,-8.06826,2018.91],[114.23202,-8.06832,2018.64],[114.232,-8.0684,2016.62],[114.23196,-8.06846,2014.85],[114.23193,-8.06851,2013.5],[114.23192,-8.06855,2012.63],[114.2319,-8.06863,2010.57],[114.23184,-8.06868,2008.11],[114.23173,-8.06869,2007.19],[114.23166,-8.06874,2006.09],[114.23168,-8.06885,2004.38],[114.2317,-8.06897,2002.85],[114.2317,-8.06915,2001.63],[114.23171,-8.06934,1998.16],[114.23167,-8.06943,1997.2],[114.23162,-8.06948,1995.29],[114.23151,-8.06955,1992.54],[114.23147,-8.06963,1989.54],[114.23138,-8.06975,1986.1],[114.23127,-8.06979,1984.8],[114.2312,-8.06989,1981.56],[114.23116,-8.06999,1978.32],[114.23119,-8.07017,1972.93],[114.23118,-8.07029,1969.52],[114.2311,-8.07035,1968.67],[114.231,-8.0704,1967.58],[114.2309,-8.07048,1966.15],[114.23078,-8.07053,1964.97],[114.23064,-8.07055,1963.67],[114.2305,-8.07052,1962.71],[114.23034,-8.07043,1960.98],[114.23021,-8.07041,1957.55],[114.2301,-8.07046,1953.8],[114.23002,-8.0705,1951.28],[114.22991,-8.07052,1948.55],[114.2298,-8.07053,1946.1],[114.22977,-8.07055,1945.89],[114.22977,-8.07055,1945.89],[114.22967,-8.07062,1944.17],[114.22955,-8.07074,1943.72],[114.2295,-8.07086,1946.11],[114.22946,-8.07093,1946.54],[114.22939,-8.07102,1945.8],[114.22932,-8.07107,1944.99],[114.22923,-8.07113,1944.29],[114.22917,-8.07122,1943.05],[114.2291,-8.07127,1941.01],[114.22899,-8.07132,1938.07],[114.22891,-8.07136,1936.24],[114.22879,-8.07139,1931.39],[114.2287,-8.0714,1927.47],[114.22863,-8.07145,1926.15],[114.22843,-8.0715,1920.23],[114.2283,-8.07148,1913.69],[114.22821,-8.07148,1909.47],[114.228,-8.07151,1901.52],[114.22788,-8.07153,1897.15],[114.22778,-8.07158,1896.61],[114.22768,-8.07165,1900.22],[114.2276,-8.07172,1901.66],[114.22754,-8.07174,1900.61],[114.22746,-8.07178,1898.58],[114.22744,-8.07178,1897.53],[114.22735,-8.07181,1894.14],[114.22728,-8.07184,1892.12],[114.22718,-8.07186,1889.65],[114.22716,-8.07187,1889.84],[114.22707,-8.07188,1888.82],[114.22693,-8.0719,1887.58],[114.22687,-8.07191,1886.77],[114.22681,-8.07191,1885.26],[114.22673,-8.07191,1883.25],[114.22661,-8.07192,1881.83],[114.22652,-8.07193,1881.51],[114.22639,-8.07194,1880.6],[114.22625,-8.07193,1878.04],[114.22621,-8.07193,1877.58],[114.22616,-8.07192,1875.95],[114.22603,-8.07192,1872.28],[114.22599,-8.07193,1871.76],[114.22587,-8.07199,1871.75],[114.22574,-8.07206,1872.69],[114.2256,-8.07212,1872.7],[114.2255,-8.07217,1872.74],[114.22542,-8.07224,1874.44],[114.22535,-8.07231,1875.75],[114.22535,-8.07231,1875.75],[114.22531,-8.07235,1876.73],[114.22525,-8.07241,1878.91],[114.22517,-8.0725,1883.22],[114.22512,-8.0726,1884.2],[114.22498,-8.07268,1885.09],[114.22486,-8.07272,1885.14],[114.22473,-8.0728,1886.35],[114.22466,-8.07286,1885.62],[114.22458,-8.07292,1884.46],[114.22446,-8.07298,1882.3],[114.22436,-8.07308,1881.63],[114.22427,-8.07314,1880.28],[114.22426,-8.07316,1880.18]]}}]}