{"type":"FeatureCollection","features":[{"type":"Feature","properties":{"name":"madakaripura-waterfall","slug":"madakaripura-waterfall","description":"<![CDATA[]]>","source":"AllTrails.com"},"geometry":{"type":"LineString","coordinates":[[113.01865,-7.84388,555.1],[113.01793,-7.84433,570.65],[113.01786,-7.84438,569.1],[113.01783,-7.84442,567.55],[113.01779,-7.84446,565.87],[113.01775,-7.8445,568.1],[113.01769,-7.84456,571.27],[113.01764,-7.84463,573.21],[113.01754,-7.84474,571.97],[113.01751,-7.84479,572.69],[113.01745,-7.84484,574.56],[113.01739,-7.8449,575.45],[113.01736,-7.84494,575.14],[113.01735,-7.845,574.98],[113.01735,-7.84505,577.24],[113.01735,-7.84512,580.4],[113.01735,-7.84518,583.11],[113.01735,-7.84524,585.81],[113.01734,-7.84529,587.72],[113.01732,-7.84535,589.96],[113.01731,-7.84541,592.61],[113.01728,-7.84548,594.84],[113.01724,-7.84556,596.96],[113.01722,-7.84563,598.07],[113.01719,-7.84568,598.49],[113.01718,-7.84575,600.13],[113.01715,-7.84579,600.19],[113.01714,-7.84584,601.39],[113.01711,-7.84589,603.02],[113.01708,-7.84593,604.29],[113.01705,-7.84597,605.72],[113.01699,-7.84603,607.8],[113.01692,-7.84611,612.19],[113.01688,-7.84616,614.52],[113.01682,-7.84625,617.78],[113.01677,-7.84634,620.15],[113.01671,-7.84645,623.08],[113.01665,-7.84654,625.65],[113.01661,-7.84661,627.01],[113.01658,-7.84666,627.39],[113.01654,-7.84673,629.2],[113.01651,-7.84679,631.49],[113.01647,-7.84686,634.61],[113.01642,-7.84692,637.64],[113.01638,-7.84697,641.02],[113.01634,-7.84702,643.59],[113.0163,-7.84706,644.95],[113.01627,-7.8471,646.69],[113.01624,-7.84716,649.95],[113.01621,-7.84721,652.1],[113.01617,-7.8473,653.63],[113.0161,-7.84738,653.2],[113.01604,-7.84744,651.64],[113.016,-7.84751,650.79],[113.01595,-7.84755,646.36],[113.01591,-7.84761,642.24],[113.01587,-7.84769,637.34],[113.01583,-7.84774,632.65],[113.0158,-7.84778,631.98],[113.01577,-7.84782,635.42],[113.01574,-7.84788,639.77],[113.0157,-7.84792,641.01],[113.01567,-7.848,644.33],[113.01564,-7.84805,644.62],[113.01561,-7.84812,647.86],[113.01558,-7.84816,649.08],[113.01554,-7.84823,652.46],[113.01551,-7.84829,654.81],[113.01548,-7.84836,654.97],[113.01546,-7.84841,652.67],[113.0154,-7.84847,646.52],[113.01523,-7.8486,635.05],[113.01518,-7.84863,634.23],[113.01514,-7.84865,633.58],[113.0151,-7.84868,633.33],[113.01504,-7.8487,631.96],[113.01499,-7.8487,630.05],[113.01493,-7.84868,626.58],[113.01486,-7.84865,622.57],[113.0148,-7.84861,619.06],[113.01476,-7.84857,616.65],[113.01471,-7.84847,612.89],[113.01469,-7.8484,611.24],[113.01466,-7.84833,609.75],[113.01461,-7.84824,615.18],[113.01457,-7.84819,618.62],[113.01452,-7.84813,623.25],[113.01443,-7.84812,625.25],[113.01436,-7.8481,628.28],[113.01429,-7.8481,629.77],[113.01422,-7.84809,631.71],[113.01416,-7.84809,632.73],[113.0141,-7.84809,632.49],[113.01403,-7.8481,631.97],[113.0139,-7.84817,630.73],[113.01386,-7.8482,631.78],[113.01379,-7.84827,631.49],[113.01376,-7.84831,629.53],[113.01372,-7.84836,626.49],[113.01367,-7.84843,623.28],[113.01365,-7.84848,621.33],[113.01363,-7.84854,619.24],[113.01363,-7.8486,616.95],[113.01363,-7.84865,616.18],[113.01363,-7.84872,615.56],[113.01363,-7.84879,614.94],[113.01365,-7.84887,614.27],[113.01366,-7.84892,614.74],[113.01367,-7.84898,615.94],[113.0137,-7.84903,617.33],[113.01372,-7.84909,618.99],[113.01373,-7.84915,620.6],[113.01375,-7.84922,623.04],[113.01375,-7.84922,623.04],[113.0138,-7.84963,638.33],[113.01377,-7.84973,639.52],[113.01376,-7.8498,639.74],[113.01376,-7.8499,640.73],[113.01376,-7.84996,641.32],[113.01377,-7.85003,642.73],[113.01377,-7.85008,643.22],[113.01376,-7.85014,643.03],[113.01374,-7.8502,642],[113.01372,-7.85024,640.72],[113.01367,-7.85027,636.83],[113.01363,-7.8503,634.13],[113.01357,-7.85031,632.38],[113.01347,-7.85032,631.23],[113.01339,-7.85032,630.1],[113.0133,-7.85034,629.42],[113.01325,-7.85035,629.44],[113.01317,-7.85037,629.47],[113.01302,-7.85041,630.33],[113.01295,-7.85042,631.95],[113.01282,-7.85045,634.42],[113.01276,-7.85045,635.62],[113.01266,-7.85045,637.56],[113.01256,-7.85048,638.77],[113.01248,-7.85052,639.63],[113.01239,-7.85055,642.45],[113.01229,-7.85061,646.99],[113.01219,-7.85065,650.65],[113.01211,-7.8507,654.16],[113.01202,-7.85075,659.14],[113.01196,-7.85079,663.38],[113.01185,-7.85086,666.56],[113.01176,-7.85093,669.96],[113.01172,-7.85096,671.24],[113.01168,-7.85099,672.43],[113.01162,-7.85102,673.79],[113.01156,-7.85103,673.71],[113.01146,-7.85104,672.71],[113.01139,-7.85107,671.06],[113.01132,-7.85111,671.51],[113.01124,-7.85116,673.59],[113.01117,-7.85118,674.56],[113.01111,-7.85121,674.94],[113.01105,-7.85124,675.27],[113.01089,-7.85134,675.92],[113.01081,-7.8514,676.25],[113.01077,-7.85142,676.73],[113.01072,-7.85145,677.44],[113.01065,-7.85151,678.77],[113.01058,-7.85157,680.32],[113.01055,-7.85161,681.17],[113.01052,-7.85165,681.11],[113.01047,-7.85174,680.07],[113.01042,-7.85176,679.23],[113.0104,-7.85181,679.3],[113.0103,-7.8519,679.36],[113.01023,-7.85195,682.39],[113.01013,-7.85205,689.75],[113.0101,-7.85209,692.18],[113.01003,-7.85214,696.6],[113.00998,-7.85221,699.84],[113.00993,-7.85227,700.98],[113.00987,-7.85233,701.92],[113.00981,-7.85237,702.6],[113.00974,-7.85243,703.42],[113.0097,-7.85245,703.93],[113.00963,-7.85248,705.14],[113.00953,-7.8525,706.77],[113.00946,-7.85251,708.22],[113.0094,-7.85253,711.74],[113.00933,-7.85255,716.23],[113.00927,-7.8526,720.79],[113.00923,-7.85264,723.68],[113.00919,-7.85268,726.28],[113.0091,-7.85278,730.77],[113.00907,-7.85282,733.15],[113.00903,-7.85289,736.7],[113.009,-7.85293,738.68],[113.00897,-7.85301,741.86],[113.00896,-7.85308,744.85],[113.00891,-7.85315,749],[113.00887,-7.85322,752.86],[113.00884,-7.85326,754.75],[113.0088,-7.8533,756.27],[113.00876,-7.85333,757.01],[113.0087,-7.8534,762.1],[113.00867,-7.85351,770.78],[113.00867,-7.85361,779.24],[113.0087,-7.85371,789.12],[113.00872,-7.85377,794.64],[113.00874,-7.85381,798.17],[113.00877,-7.85388,803.75],[113.0088,-7.85394,812.67],[113.0088,-7.85399,820.85],[113.0088,-7.85401,824.11],[113.0088,-7.85399,820.85],[113.0088,-7.85394,812.67],[113.00877,-7.85388,803.75],[113.00874,-7.85381,798.17],[113.00872,-7.85377,794.64],[113.0087,-7.85371,789.12],[113.00867,-7.85361,779.24],[113.00867,-7.85351,770.78],[113.0087,-7.8534,762.1],[113.00876,-7.85333,757.01],[113.0088,-7.8533,756.27],[113.00884,-7.85326,754.75],[113.00887,-7.85322,752.86],[113.00891,-7.85315,749],[113.00896,-7.85308,744.85],[113.00897,-7.85301,741.86],[113.009,-7.85293,738.68],[113.00903,-7.85289,736.7],[113.00907,-7.85282,733.15],[113.0091,-7.85278,730.77],[113.00919,-7.85268,726.28],[113.00923,-7.85264,723.68],[113.00927,-7.8526,720.79],[113.00933,-7.85255,716.23],[113.0094,-7.85253,711.74],[113.00946,-7.85251,708.22],[113.00953,-7.8525,706.77],[113.00963,-7.85248,705.14],[113.0097,-7.85245,703.93],[113.00974,-7.85243,703.42],[113.00981,-7.85237,702.6],[113.00987,-7.85233,701.92],[113.00993,-7.85227,700.98],[113.00998,-7.85221,699.84],[113.01003,-7.85214,696.6],[113.0101,-7.85209,692.18],[113.01013,-7.85205,689.75],[113.01023,-7.85195,682.39],[113.0103,-7.8519,679.36],[113.0104,-7.85181,679.3],[113.01042,-7.85176,679.23],[113.01047,-7.85174,680.07],[113.01052,-7.85165,681.11],[113.01055,-7.85161,681.17],[113.01058,-7.85157,680.32],[113.01065,-7.85151,678.77],[113.01072,-7.85145,677.44],[113.01077,-7.85142,676.73],[113.01081,-7.8514,676.25],[113.01089,-7.85134,675.92],[113.01105,-7.85124,675.27],[113.01111,-7.85121,674.94],[113.01117,-7.85118,674.56],[113.01124,-7.85116,673.59],[113.01132,-7.85111,671.51],[113.01139,-7.85107,671.06],[113.01146,-7.85104,672.71],[113.01156,-7.85103,673.71],[113.01162,-7.85102,673.79],[113.01168,-7.85099,672.43],[113.01172,-7.85096,671.24],[113.01176,-7.85093,669.96],[113.01185,-7.85086,666.56],[113.01196,-7.85079,663.38],[113.01202,-7.85075,659.14],[113.01211,-7.8507,654.16],[113.01219,-7.85065,650.65],[113.01229,-7.85061,646.99],[113.01239,-7.85055,642.45],[113.01248,-7.85052,639.63],[113.01256,-7.85048,638.77],[113.01266,-7.85045,637.56],[113.01276,-7.85045,635.62],[113.01282,-7.85045,634.42],[113.01295,-7.85042,631.95],[113.01302,-7.85041,630.33],[113.01317,-7.85037,629.47],[113.01325,-7.85035,629.44],[113.0133,-7.85034,629.42],[113.01339,-7.85032,630.1],[113.01347,-7.85032,631.23],[113.01357,-7.85031,632.38],[113.01363,-7.8503,634.13],[113.01367,-7.85027,636.83],[113.01372,-7.85024,640.72],[113.01374,-7.8502,642],[113.01376,-7.85014,643.03],[113.01377,-7.85008,643.22],[113.01377,-7.85003,642.73],[113.01376,-7.84996,641.32],[113.01376,-7.8499,640.73],[113.01376,-7.8498,639.74],[113.01377,-7.84973,639.52],[113.0138,-7.84963,638.33],[113.01375,-7.84922,623.04],[113.01375,-7.84922,623.04],[113.01373,-7.84915,620.6],[113.01372,-7.84909,618.99],[113.0137,-7.84903,617.33],[113.01367,-7.84898,615.94],[113.01366,-7.84892,614.74],[113.01365,-7.84887,614.27],[113.01363,-7.84879,614.94],[113.01363,-7.84872,615.56],[113.01363,-7.84865,616.18],[113.01363,-7.8486,616.95],[113.01363,-7.84854,619.24],[113.01365,-7.84848,621.33],[113.01367,-7.84843,623.28],[113.01372,-7.84836,626.49],[113.01376,-7.84831,629.53],[113.01379,-7.84827,631.49],[113.01386,-7.8482,631.78],[113.0139,-7.84817,630.73],[113.01403,-7.8481,631.97],[113.0141,-7.84809,632.49],[113.01416,-7.84809,632.73],[113.01422,-7.84809,631.71],[113.01429,-7.8481,629.77],[113.01436,-7.8481,628.28],[113.01443,-7.84812,625.25],[113.01452,-7.84813,623.25],[113.01457,-7.84819,618.62],[113.01461,-7.84824,615.18],[113.01466,-7.84833,609.75],[113.01469,-7.8484,611.24],[113.01471,-7.84847,612.89],[113.01476,-7.84857,616.65],[113.0148,-7.84861,619.06],[113.01486,-7.84865,622.57],[113.01493,-7.84868,626.58],[113.01499,-7.8487,630.05],[113.01504,-7.8487,631.96],[113.0151,-7.84868,633.33],[113.01514,-7.84865,633.58],[113.01518,-7.84863,634.23],[113.01523,-7.8486,635.05],[113.0154,-7.84847,646.52],[113.01546,-7.84841,652.67],[113.01548,-7.84836,654.97],[113.01551,-7.84829,654.81],[113.01554,-7.84823,652.46],[113.01558,-7.84816,649.08],[113.01561,-7.84812,647.86],[113.01564,-7.84805,644.62],[113.01567,-7.848,644.33],[113.0157,-7.84792,641.01],[113.01574,-7.84788,639.77],[113.01577,-7.84782,635.42],[113.0158,-7.84778,631.98],[113.01583,-7.84774,632.65],[113.01587,-7.84769,637.34],[113.01591,-7.84761,642.24],[113.01595,-7.84755,646.36],[113.016,-7.84751,650.79],[113.01604,-7.84744,651.64],[113.0161,-7.84738,653.2],[113.01617,-7.8473,653.63],[113.01621,-7.84721,652.1],[113.01624,-7.84716,649.95],[113.01627,-7.8471,646.69],[113.0163,-7.84706,644.95],[113.01634,-7.84702,643.59],[113.01638,-7.84697,641.02],[113.01642,-7.84692,637.64],[113.01647,-7.84686,634.61],[113.01651,-7.84679,631.49],[113.01654,-7.84673,629.2],[113.01658,-7.84666,627.39],[113.01661,-7.84661,627.01],[113.01665,-7.84654,625.65],[113.01671,-7.84645,623.08],[113.01677,-7.84634,620.15],[113.01682,-7.84625,617.78],[113.01688,-7.84616,614.52],[113.01692,-7.84611,612.19],[113.01699,-7.84603,607.8],[113.01705,-7.84597,605.72],[113.01708,-7.84593,604.29],[113.01711,-7.84589,603.02],[113.01714,-7.84584,601.39],[113.01715,-7.84579,600.19],[113.01718,-7.84575,600.13],[113.01719,-7.84568,598.49],[113.01722,-7.84563,598.07],[113.01724,-7.84556,596.96],[113.01728,-7.84548,594.84],[113.01731,-7.84541,592.61],[113.01732,-7.84535,589.96],[113.01734,-7.84529,587.72],[113.01735,-7.84524,585.81],[113.01735,-7.84518,583.11],[113.01735,-7.84512,580.4],[113.01735,-7.84505,577.24],[113.01735,-7.845,574.98],[113.01736,-7.84494,575.14],[113.01739,-7.8449,575.45],[113.01745,-7.84484,574.56],[113.01751,-7.84479,572.69],[113.01754,-7.84474,571.97],[113.01764,-7.84463,573.21],[113.01769,-7.84456,571.27],[113.01775,-7.8445,568.1],[113.01779,-7.84446,565.87],[113.01783,-7.84442,567.55],[113.01786,-7.84438,569.1],[113.01793,-7.84433,570.65],[113.01865,-7.84388,555.1]]}}]}