{"type":"FeatureCollection","features":[{"type":"Feature","properties":{"name":"mount-bromo","slug":"mount-bromo","description":"<![CDATA[]]>","source":"AllTrails.com"},"geometry":{"type":"LineString","coordinates":[[112.9635,-7.92181,2220.7],[112.96341,-7.92176,2221.05],[112.96337,-7.92173,2221.37],[112.96333,-7.9217,2221.74],[112.96328,-7.92171,2221.29],[112.96329,-7.92176,2220.81],[112.96331,-7.9218,2220.67],[112.96336,-7.92205,2219.03],[112.96336,-7.92205,2219.03],[112.96336,-7.92207,2218.83],[112.96337,-7.92212,2218.4],[112.96337,-7.92217,2217.91],[112.96339,-7.92222,2217.63],[112.96338,-7.92227,2218.25],[112.96336,-7.92233,2218.91],[112.96334,-7.92238,2219.37],[112.96329,-7.9224,2216.18],[112.96326,-7.92236,2213.72],[112.96324,-7.92232,2212.28],[112.96322,-7.92229,2211.07],[112.96321,-7.92227,2210.56],[112.96318,-7.92223,2209.2],[112.96314,-7.92218,2208.35],[112.9631,-7.92214,2207.62],[112.96306,-7.9221,2207.14],[112.96301,-7.92206,2204.61],[112.96297,-7.92202,2203.37],[112.96293,-7.92198,2202.75],[112.9629,-7.92196,2202.07],[112.96289,-7.92199,2199.52],[112.9629,-7.92204,2197.05],[112.96291,-7.92209,2194.78],[112.96292,-7.92214,2192.7],[112.96293,-7.92219,2190.82],[112.96294,-7.92224,2189.62],[112.96294,-7.9223,2187.98],[112.96291,-7.92233,2183.86],[112.96288,-7.92232,2180.81],[112.96282,-7.92231,2174.45],[112.96278,-7.92229,2170.54],[112.96273,-7.92231,2165.31],[112.96266,-7.92232,2158.54],[112.96261,-7.92232,2153.87],[112.96256,-7.92232,2149.2],[112.96251,-7.92233,2144.38],[112.96247,-7.92234,2141.98],[112.96244,-7.92241,2139.48],[112.96244,-7.92241,2139.48],[112.96244,-7.92241,2139.48],[112.96244,-7.92241,2139.48],[112.96244,-7.92246,2138.65],[112.96242,-7.92251,2136.58],[112.96241,-7.92256,2134.22],[112.96239,-7.92261,2131.56],[112.96236,-7.92266,2128.78],[112.96233,-7.9227,2126.6],[112.96233,-7.92271,2126.31],[112.96231,-7.92275,2124.65],[112.96231,-7.92281,2123.93],[112.96232,-7.92286,2124.23],[112.96229,-7.92291,2123.45],[112.96225,-7.92295,2122.23],[112.96221,-7.92299,2121.15],[112.96217,-7.92303,2120.72],[112.96214,-7.92307,2120.44],[112.9621,-7.92312,2120.32],[112.96207,-7.92317,2120.36],[112.96204,-7.92321,2120.42],[112.962,-7.92325,2120.52],[112.96198,-7.92331,2120.85],[112.96195,-7.92336,2120.9],[112.96191,-7.9234,2120.85],[112.96188,-7.92345,2120.87],[112.96186,-7.9235,2120.95],[112.96182,-7.92354,2121.26],[112.96179,-7.92359,2121.62],[112.96176,-7.92364,2122.68],[112.96173,-7.92369,2124.33],[112.96169,-7.92373,2126.03],[112.96167,-7.92378,2127.8],[112.96164,-7.92384,2129.55],[112.96161,-7.92389,2130.77],[112.96158,-7.92393,2129.8],[112.96155,-7.92398,2128.61],[112.96152,-7.92403,2127.42],[112.96149,-7.92408,2126.24],[112.96145,-7.92412,2125.23],[112.96142,-7.92417,2124.18],[112.96139,-7.92422,2125.15],[112.96136,-7.92426,2125.95],[112.96133,-7.92432,2127.08],[112.9613,-7.92437,2127.92],[112.96127,-7.92441,2128.51],[112.96123,-7.92445,2128.96],[112.9612,-7.9245,2129.86],[112.96116,-7.92454,2130.74],[112.96112,-7.92458,2131.87],[112.96109,-7.92462,2132.52],[112.96105,-7.92467,2132.63],[112.96102,-7.92472,2132.68],[112.96099,-7.92476,2131.42],[112.96095,-7.9248,2130.14],[112.96092,-7.92485,2129.52],[112.96088,-7.92489,2129.08],[112.96084,-7.92492,2128.92],[112.9608,-7.92497,2129.78],[112.96077,-7.92501,2130.13],[112.96073,-7.92505,2129.9],[112.96069,-7.9251,2129.62],[112.96067,-7.92515,2129.29],[112.96063,-7.92519,2129.18],[112.96059,-7.92523,2129.12],[112.96056,-7.92528,2128.94],[112.96052,-7.92532,2128.34],[112.96049,-7.92536,2127.86],[112.96045,-7.92541,2127.44],[112.96042,-7.92545,2127.24],[112.96039,-7.9255,2127.11],[112.96035,-7.92554,2127.28],[112.96032,-7.92559,2127.58],[112.96029,-7.92564,2127.89],[112.96025,-7.92568,2128.01],[112.96022,-7.92572,2127.96],[112.96019,-7.92577,2127.83],[112.96015,-7.92582,2127.58],[112.96012,-7.92586,2127.23],[112.96009,-7.92591,2126.67],[112.96005,-7.92595,2126.07],[112.96002,-7.926,2125.36],[112.95999,-7.92605,2124.72],[112.95996,-7.9261,2124.4],[112.95994,-7.92615,2124.15],[112.95991,-7.9262,2124.01],[112.95988,-7.92625,2123.86],[112.95985,-7.9263,2123.72],[112.95982,-7.92635,2123.58],[112.95978,-7.92639,2123.6],[112.95975,-7.92644,2124.48],[112.95973,-7.92649,2125.37],[112.9597,-7.92654,2126.28],[112.9597,-7.92655,2126.41],[112.95953,-7.92685,2127.56],[112.95953,-7.92685,2127.56],[112.95944,-7.927,2127.63],[112.95944,-7.927,2127.63],[112.95941,-7.92705,2127.49],[112.95938,-7.92709,2127.42],[112.95935,-7.92714,2127.27],[112.95932,-7.92719,2127.13],[112.9593,-7.92723,2127.05],[112.95929,-7.92724,2127.14],[112.95924,-7.92727,2127.52],[112.95918,-7.92729,2127.92],[112.95913,-7.92732,2128.18],[112.95907,-7.92734,2128.5],[112.95903,-7.92738,2128.77],[112.95899,-7.92741,2129.07],[112.95895,-7.92745,2129.42],[112.95892,-7.92748,2129.71],[112.95891,-7.92749,2129.81],[112.95887,-7.92753,2129.96],[112.95884,-7.92757,2130.04],[112.9588,-7.92762,2130.26],[112.95877,-7.92766,2130.48],[112.95874,-7.92771,2130.69],[112.95871,-7.92776,2130.97],[112.95868,-7.92781,2131.86],[112.95866,-7.92787,2132.94],[112.95863,-7.92792,2134.13],[112.9586,-7.92797,2135.1],[112.95857,-7.92801,2135.48],[112.95853,-7.92805,2135.68],[112.95849,-7.9281,2136.34],[112.95846,-7.92814,2136.76],[112.95842,-7.92818,2136.91],[112.95813,-7.92845,2135.84],[112.95813,-7.92845,2135.84],[112.95803,-7.92859,2135.88],[112.95803,-7.92859,2135.88],[112.958,-7.92862,2134.96],[112.95798,-7.92868,2133.99],[112.95794,-7.92872,2132.55],[112.95791,-7.92878,2131.5],[112.95789,-7.92883,2130.87],[112.95785,-7.92887,2129.81],[112.95783,-7.9289,2129.62],[112.9576,-7.92913,2134.35],[112.9576,-7.92913,2134.35],[112.95748,-7.92927,2134.02],[112.95748,-7.92927,2134.02],[112.95732,-7.9294,2134.33],[112.95728,-7.92941,2134.14],[112.95713,-7.92946,2134.22],[112.95708,-7.92948,2134.44],[112.95703,-7.92949,2134.48],[112.95699,-7.92951,2134.59],[112.95696,-7.92954,2134.75],[112.95694,-7.92958,2134.94],[112.95694,-7.92959,2135.02],[112.95693,-7.92964,2135.28],[112.95691,-7.92968,2135.36],[112.9569,-7.92973,2135.66],[112.95689,-7.92977,2136.27],[112.95686,-7.92981,2136.67],[112.95686,-7.92982,2136.85],[112.95684,-7.92983,2136.81],[112.95678,-7.92985,2136.52],[112.95675,-7.9299,2137.1],[112.95673,-7.92994,2137.6],[112.9567,-7.92998,2138],[112.9567,-7.93003,2138.58],[112.95668,-7.93007,2138.65],[112.95668,-7.93008,2138.72],[112.95667,-7.93013,2138.97],[112.95665,-7.93019,2139.48],[112.95663,-7.93025,2140.24],[112.95663,-7.93031,2141.06],[112.95662,-7.93032,2141.3],[112.95651,-7.93046,2142.12],[112.95647,-7.93051,2141.34],[112.95644,-7.93055,2140.35],[112.95643,-7.9306,2139.56],[112.95643,-7.9306,2139.56],[112.95644,-7.93068,2138.94],[112.95643,-7.93073,2138.15],[112.95641,-7.93077,2137.22],[112.95638,-7.93081,2136.31],[112.95638,-7.93085,2136.19],[112.95628,-7.93107,2139.49],[112.95628,-7.93107,2139.49],[112.95623,-7.93125,2140.36],[112.95621,-7.93141,2139.42],[112.95621,-7.93141,2139.42],[112.95622,-7.93156,2141.16],[112.95622,-7.93156,2141.16],[112.95622,-7.93156,2141.16],[112.95621,-7.93162,2141.59],[112.95622,-7.93167,2142.15],[112.9562,-7.93171,2141.7],[112.95616,-7.93175,2141.12],[112.95613,-7.93178,2140.74],[112.95608,-7.93178,2140.48],[112.95604,-7.93179,2140.36],[112.95602,-7.93181,2140.35],[112.956,-7.93183,2140.39],[112.95597,-7.93187,2140.6],[112.95593,-7.93192,2141.11],[112.9559,-7.93196,2141.7],[112.95587,-7.93201,2142.48],[112.95584,-7.93206,2143.21],[112.9558,-7.9321,2143.51],[112.95578,-7.93216,2144.09],[112.95573,-7.93219,2144.24],[112.95568,-7.93222,2144.42],[112.95565,-7.93227,2144.69],[112.95563,-7.93233,2144.97],[112.95561,-7.93239,2145.16],[112.95559,-7.93245,2145.25],[112.95558,-7.93251,2145.41],[112.95556,-7.93257,2145.55],[112.95553,-7.93262,2145.84],[112.95551,-7.93266,2146.03],[112.95548,-7.93271,2146.17],[112.95543,-7.93288,2145.69],[112.95542,-7.93293,2145.46],[112.95539,-7.93298,2145.22],[112.95538,-7.933,2145.15],[112.95527,-7.93318,2145.9],[112.95525,-7.93322,2146.18],[112.95522,-7.93326,2146.47],[112.95519,-7.9333,2146.76],[112.95515,-7.93332,2146.9],[112.95495,-7.93352,2148.78],[112.95495,-7.93352,2148.78],[112.95478,-7.93376,2149.74],[112.95478,-7.93376,2149.74],[112.95478,-7.93376,2149.74],[112.95477,-7.93382,2149.92],[112.95474,-7.93387,2150],[112.95471,-7.93393,2149.77],[112.95468,-7.93398,2149.65],[112.95465,-7.93403,2149.64],[112.95464,-7.93405,2149.65],[112.9544,-7.93442,2149.09],[112.9544,-7.93442,2149.09],[112.9544,-7.93442,2149.09],[112.95439,-7.93447,2149.36],[112.95436,-7.93452,2150.33],[112.95434,-7.93458,2151.55],[112.9543,-7.93462,2152.27],[112.95426,-7.93466,2152.99],[112.95426,-7.93467,2153.21],[112.95423,-7.9347,2153.75],[112.95419,-7.93475,2154.67],[112.95415,-7.93478,2155.16],[112.95411,-7.93482,2155.76],[112.95407,-7.93486,2156.28],[112.95404,-7.93487,2156.25],[112.95402,-7.93487,2156.1],[112.95398,-7.93491,2156.48],[112.95394,-7.9349,2155.98],[112.95393,-7.93493,2156.36],[112.95394,-7.93498,2157.24],[112.95395,-7.93504,2157.53],[112.95395,-7.93509,2157.37],[112.95395,-7.93514,2157.22],[112.95396,-7.93519,2157.07],[112.95395,-7.93525,2156.87],[112.95395,-7.9353,2157.1],[112.95395,-7.93536,2157.96],[112.95394,-7.93541,2158.72],[112.95394,-7.93547,2159.58],[112.95393,-7.93552,2160.34],[112.95392,-7.93558,2161.16],[112.9539,-7.93564,2161.88],[112.95387,-7.93569,2162.79],[112.95385,-7.93574,2163.69],[112.95382,-7.93579,2164.77],[112.95378,-7.93584,2166.05],[112.95376,-7.9359,2167.19],[112.95377,-7.93595,2167.7],[112.95376,-7.936,2168.48],[112.95375,-7.93606,2169.36],[112.95375,-7.93612,2170.14],[112.95373,-7.93618,2171.24],[112.95371,-7.93623,2172.15],[112.95369,-7.93629,2173.19],[112.95368,-7.93635,2174.16],[112.95368,-7.93641,2174.96],[112.95367,-7.93646,2175.5],[112.95367,-7.93651,2176],[112.95368,-7.93657,2176.55],[112.95367,-7.93662,2177.11],[112.95366,-7.93668,2177.57],[112.95367,-7.93673,2177.22],[112.95366,-7.93679,2176.92],[112.95365,-7.93684,2176.65],[112.95365,-7.9369,2176.28],[112.95364,-7.93695,2175.93],[112.95363,-7.93701,2175.12],[112.95363,-7.93707,2174.31],[112.95362,-7.93712,2173.55],[112.95361,-7.93718,2172.62],[112.95362,-7.93723,2172.46],[112.95361,-7.93729,2174.94],[112.9536,-7.93734,2177.15],[112.95361,-7.93739,2179.25],[112.9536,-7.93744,2181.36],[112.95359,-7.93749,2183.36],[112.95358,-7.93753,2184.44],[112.95356,-7.93757,2185.3],[112.95358,-7.93762,2186.78],[112.95359,-7.93767,2188.15],[112.95362,-7.93769,2188.75],[112.95365,-7.93772,2189.37],[112.95367,-7.93775,2190.07],[112.95368,-7.9378,2191.65],[112.95368,-7.93786,2194.08],[112.95368,-7.93791,2196.11],[112.95369,-7.93796,2198.12],[112.95369,-7.93801,2200.15],[112.9537,-7.93806,2202.14],[112.95369,-7.93812,2204.09],[112.95368,-7.93818,2206.03],[112.95365,-7.93823,2207.65],[112.95363,-7.93829,2209.6],[112.95359,-7.93832,2210.33],[112.95355,-7.93837,2211.15],[112.95349,-7.93839,2211.16],[112.95345,-7.93842,2211.72],[112.9534,-7.93845,2212.42],[112.95334,-7.93847,2212.93],[112.95329,-7.9385,2213.72],[112.95324,-7.93853,2214.37],[112.95318,-7.93854,2214.21],[112.95312,-7.93856,2214.28],[112.95307,-7.93859,2214.61],[112.95301,-7.93861,2215.46],[112.95296,-7.93864,2216.65],[112.95292,-7.93868,2217.84],[112.95287,-7.9387,2218.6],[112.95284,-7.93875,2219.66],[112.95282,-7.93881,2220.73],[112.95281,-7.93887,2221.7],[112.9528,-7.93893,2223.27],[112.95281,-7.93898,2224.76],[112.95281,-7.93903,2226.28],[112.95283,-7.93908,2227.55],[112.95285,-7.93913,2228.68],[112.95287,-7.93917,2229.5],[112.95288,-7.93922,2231.75],[112.9529,-7.93927,2233.92],[112.9529,-7.93932,2236.4],[112.95291,-7.93938,2239.3],[112.95291,-7.93943,2241.8],[112.95291,-7.93949,2245.24],[112.9529,-7.93954,2248.3],[112.95289,-7.9396,2252],[112.95287,-7.93966,2255.86],[112.95285,-7.93972,2259.82],[112.95283,-7.93978,2263.86],[112.95282,-7.93984,2267.73],[112.9528,-7.93989,2271.04],[112.95278,-7.93995,2274.92],[112.95277,-7.93998,2276.93],[112.95278,-7.93995,2274.92],[112.9528,-7.93989,2271.04],[112.95282,-7.93984,2267.73],[112.95283,-7.93978,2263.86],[112.95285,-7.93972,2259.82],[112.95287,-7.93966,2255.86],[112.95289,-7.9396,2252],[112.9529,-7.93954,2248.3],[112.95291,-7.93949,2245.24],[112.95291,-7.93943,2241.8],[112.95291,-7.93938,2239.3],[112.9529,-7.93932,2236.4],[112.9529,-7.93927,2233.92],[112.95288,-7.93922,2231.75],[112.95287,-7.93917,2229.5],[112.95285,-7.93913,2228.68],[112.95283,-7.93908,2227.55],[112.95281,-7.93903,2226.28],[112.95281,-7.93898,2224.76],[112.9528,-7.93893,2223.27],[112.95281,-7.93887,2221.7],[112.95282,-7.93881,2220.73],[112.95284,-7.93875,2219.66],[112.95287,-7.9387,2218.6],[112.95292,-7.93868,2217.84],[112.95296,-7.93864,2216.65],[112.95301,-7.93861,2215.46],[112.95307,-7.93859,2214.61],[112.95312,-7.93856,2214.28],[112.95318,-7.93854,2214.21],[112.95324,-7.93853,2214.37],[112.95329,-7.9385,2213.72],[112.95334,-7.93847,2212.93],[112.9534,-7.93845,2212.42],[112.95345,-7.93842,2211.72],[112.95349,-7.93839,2211.16],[112.95355,-7.93837,2211.15],[112.95359,-7.93832,2210.33],[112.95363,-7.93829,2209.6],[112.95365,-7.93823,2207.65],[112.95368,-7.93818,2206.03],[112.95369,-7.93812,2204.09],[112.9537,-7.93806,2202.14],[112.95369,-7.93801,2200.15],[112.95369,-7.93796,2198.12],[112.95368,-7.93791,2196.11],[112.95368,-7.93786,2194.08],[112.95368,-7.9378,2191.65],[112.95367,-7.93775,2190.07],[112.95365,-7.93772,2189.37],[112.95362,-7.93769,2188.75],[112.95359,-7.93767,2188.15],[112.95358,-7.93762,2186.78],[112.95356,-7.93757,2185.3],[112.95358,-7.93753,2184.44],[112.95359,-7.93749,2183.36],[112.9536,-7.93744,2181.36],[112.95361,-7.93739,2179.25],[112.9536,-7.93734,2177.15],[112.95361,-7.93729,2174.94],[112.95362,-7.93723,2172.46],[112.95361,-7.93718,2172.62],[112.95362,-7.93712,2173.55],[112.95363,-7.93707,2174.31],[112.95363,-7.93701,2175.12],[112.95364,-7.93695,2175.93],[112.95365,-7.9369,2176.28],[112.95365,-7.93684,2176.65],[112.95366,-7.93679,2176.92],[112.95367,-7.93673,2177.22],[112.95366,-7.93668,2177.57],[112.95367,-7.93662,2177.11],[112.95368,-7.93657,2176.55],[112.95367,-7.93651,2176],[112.95367,-7.93646,2175.5],[112.95368,-7.93641,2174.96],[112.95368,-7.93635,2174.16],[112.95369,-7.93629,2173.19],[112.95371,-7.93623,2172.15],[112.95373,-7.93618,2171.24],[112.95375,-7.93612,2170.14],[112.95375,-7.93606,2169.36],[112.95376,-7.936,2168.48],[112.95377,-7.93595,2167.7],[112.95376,-7.9359,2167.19],[112.95378,-7.93584,2166.05],[112.95382,-7.93579,2164.77],[112.95385,-7.93574,2163.69],[112.95387,-7.93569,2162.79],[112.9539,-7.93564,2161.88],[112.95392,-7.93558,2161.16],[112.95393,-7.93552,2160.34],[112.95394,-7.93547,2159.58],[112.95394,-7.93541,2158.72],[112.95395,-7.93536,2157.96],[112.95395,-7.9353,2157.1],[112.95395,-7.93525,2156.87],[112.95396,-7.93519,2157.07],[112.95395,-7.93514,2157.22],[112.95395,-7.93509,2157.37],[112.95395,-7.93504,2157.53],[112.95394,-7.93498,2157.24],[112.95393,-7.93493,2156.36],[112.95394,-7.9349,2155.98],[112.95398,-7.93491,2156.48],[112.95402,-7.93487,2156.1],[112.95404,-7.93487,2156.25],[112.95407,-7.93486,2156.28],[112.95411,-7.93482,2155.76],[112.95415,-7.93478,2155.16],[112.95419,-7.93475,2154.67],[112.95423,-7.9347,2153.75],[112.95426,-7.93467,2153.21],[112.95426,-7.93466,2152.99],[112.9543,-7.93462,2152.27],[112.95434,-7.93458,2151.55],[112.95436,-7.93452,2150.33],[112.95439,-7.93447,2149.36],[112.9544,-7.93442,2149.09],[112.9544,-7.93442,2149.09],[112.9544,-7.93442,2149.09],[112.95464,-7.93405,2149.65],[112.95465,-7.93403,2149.64],[112.95468,-7.93398,2149.65],[112.95471,-7.93393,2149.77],[112.95474,-7.93387,2150],[112.95477,-7.93382,2149.92],[112.95478,-7.93376,2149.74],[112.95478,-7.93376,2149.74],[112.95478,-7.93376,2149.74],[112.95495,-7.93352,2148.78],[112.95495,-7.93352,2148.78],[112.95515,-7.93332,2146.9],[112.95519,-7.9333,2146.76],[112.95522,-7.93326,2146.47],[112.95525,-7.93322,2146.18],[112.95527,-7.93318,2145.9],[112.95538,-7.933,2145.15],[112.95539,-7.93298,2145.22],[112.95542,-7.93293,2145.46],[112.95543,-7.93288,2145.69],[112.95548,-7.93271,2146.17],[112.95551,-7.93266,2146.03],[112.95553,-7.93262,2145.84],[112.95556,-7.93257,2145.55],[112.95558,-7.93251,2145.41],[112.95559,-7.93245,2145.25],[112.95561,-7.93239,2145.16],[112.95563,-7.93233,2144.97],[112.95565,-7.93227,2144.69],[112.95568,-7.93222,2144.42],[112.95573,-7.93219,2144.24],[112.95578,-7.93216,2144.09],[112.9558,-7.9321,2143.51],[112.95584,-7.93206,2143.21],[112.95587,-7.93201,2142.48],[112.9559,-7.93196,2141.7],[112.95593,-7.93192,2141.11],[112.95597,-7.93187,2140.6],[112.956,-7.93183,2140.39],[112.95602,-7.93181,2140.35],[112.95604,-7.93179,2140.36],[112.95608,-7.93178,2140.48],[112.95613,-7.93178,2140.74],[112.95616,-7.93175,2141.12],[112.9562,-7.93171,2141.7],[112.95622,-7.93167,2142.15],[112.95621,-7.93162,2141.59],[112.95622,-7.93156,2141.16],[112.95622,-7.93156,2141.16],[112.95622,-7.93156,2141.16],[112.95621,-7.93141,2139.42],[112.95621,-7.93141,2139.42],[112.95623,-7.93125,2140.36],[112.95628,-7.93107,2139.49],[112.95628,-7.93107,2139.49],[112.95638,-7.93085,2136.19],[112.95638,-7.93081,2136.31],[112.95641,-7.93077,2137.22],[112.95643,-7.93073,2138.15],[112.95644,-7.93068,2138.94],[112.95643,-7.9306,2139.56],[112.95643,-7.9306,2139.56],[112.95644,-7.93055,2140.35],[112.95647,-7.93051,2141.34],[112.95651,-7.93046,2142.12],[112.95662,-7.93032,2141.3],[112.95663,-7.93031,2141.06],[112.95663,-7.93025,2140.24],[112.95665,-7.93019,2139.48],[112.95667,-7.93013,2138.97],[112.95668,-7.93008,2138.72],[112.95668,-7.93007,2138.65],[112.9567,-7.93003,2138.58],[112.9567,-7.92998,2138],[112.95673,-7.92994,2137.6],[112.95675,-7.9299,2137.1],[112.95678,-7.92985,2136.52],[112.95684,-7.92983,2136.81],[112.95686,-7.92982,2136.85],[112.95686,-7.92981,2136.67],[112.95689,-7.92977,2136.27],[112.9569,-7.92973,2135.66],[112.95691,-7.92968,2135.36],[112.95693,-7.92964,2135.28],[112.95694,-7.92959,2135.02],[112.95694,-7.92958,2134.94],[112.95696,-7.92954,2134.75],[112.95699,-7.92951,2134.59],[112.95703,-7.92949,2134.48],[112.95708,-7.92948,2134.44],[112.95713,-7.92946,2134.22],[112.95728,-7.92941,2134.14],[112.95732,-7.9294,2134.33],[112.95748,-7.92927,2134.02],[112.95748,-7.92927,2134.02],[112.9576,-7.92913,2134.35],[112.9576,-7.92913,2134.35],[112.95783,-7.9289,2129.62],[112.95785,-7.92887,2129.81],[112.95789,-7.92883,2130.87],[112.95791,-7.92878,2131.5],[112.95794,-7.92872,2132.55],[112.95798,-7.92868,2133.99],[112.958,-7.92862,2134.96],[112.95803,-7.92859,2135.88],[112.95803,-7.92859,2135.88],[112.95813,-7.92845,2135.84],[112.95813,-7.92845,2135.84],[112.95842,-7.92818,2136.91],[112.95846,-7.92814,2136.76],[112.95849,-7.9281,2136.34],[112.95853,-7.92805,2135.68],[112.95857,-7.92801,2135.48],[112.9586,-7.92797,2135.1],[112.95863,-7.92792,2134.13],[112.95866,-7.92787,2132.94],[112.95868,-7.92781,2131.86],[112.95871,-7.92776,2130.97],[112.95874,-7.92771,2130.69],[112.95877,-7.92766,2130.48],[112.9588,-7.92762,2130.26],[112.95884,-7.92757,2130.04],[112.95887,-7.92753,2129.96],[112.95891,-7.92749,2129.81],[112.95892,-7.92748,2129.71],[112.95895,-7.92745,2129.42],[112.95899,-7.92741,2129.07],[112.95903,-7.92738,2128.77],[112.95907,-7.92734,2128.5],[112.95913,-7.92732,2128.18],[112.95918,-7.92729,2127.92],[112.95924,-7.92727,2127.52],[112.95929,-7.92724,2127.14],[112.9593,-7.92723,2127.05],[112.95932,-7.92719,2127.13],[112.95935,-7.92714,2127.27],[112.95938,-7.92709,2127.42],[112.95941,-7.92705,2127.49],[112.95944,-7.927,2127.63],[112.95944,-7.927,2127.63],[112.95953,-7.92685,2127.56],[112.95953,-7.92685,2127.56],[112.9597,-7.92655,2126.41],[112.9597,-7.92654,2126.28],[112.95973,-7.92649,2125.37],[112.95975,-7.92644,2124.48],[112.95978,-7.92639,2123.6],[112.95982,-7.92635,2123.58],[112.95985,-7.9263,2123.72],[112.95988,-7.92625,2123.86],[112.95991,-7.9262,2124.01],[112.95994,-7.92615,2124.15],[112.95996,-7.9261,2124.4],[112.95999,-7.92605,2124.72],[112.96002,-7.926,2125.36],[112.96005,-7.92595,2126.07],[112.96009,-7.92591,2126.67],[112.96012,-7.92586,2127.23],[112.96015,-7.92582,2127.58],[112.96019,-7.92577,2127.83],[112.96022,-7.92572,2127.96],[112.96025,-7.92568,2128.01],[112.96029,-7.92564,2127.89],[112.96032,-7.92559,2127.58],[112.96035,-7.92554,2127.28],[112.96039,-7.9255,2127.11],[112.96042,-7.92545,2127.24],[112.96045,-7.92541,2127.44],[112.96049,-7.92536,2127.86],[112.96052,-7.92532,2128.34],[112.96056,-7.92528,2128.94],[112.96059,-7.92523,2129.12],[112.96063,-7.92519,2129.18],[112.96067,-7.92515,2129.29],[112.96069,-7.9251,2129.62],[112.96073,-7.92505,2129.9],[112.96077,-7.92501,2130.13],[112.9608,-7.92497,2129.78],[112.96084,-7.92492,2128.92],[112.96088,-7.92489,2129.08],[112.96092,-7.92485,2129.52],[112.96095,-7.9248,2130.14],[112.96099,-7.92476,2131.42],[112.96102,-7.92472,2132.68],[112.96105,-7.92467,2132.63],[112.96109,-7.92462,2132.52],[112.96112,-7.92458,2131.87],[112.96116,-7.92454,2130.74],[112.9612,-7.9245,2129.86],[112.96123,-7.92445,2128.96],[112.96127,-7.92441,2128.51],[112.9613,-7.92437,2127.92],[112.96133,-7.92432,2127.08],[112.96136,-7.92426,2125.95],[112.96139,-7.92422,2125.15],[112.96142,-7.92417,2124.18],[112.96145,-7.92412,2125.23],[112.96149,-7.92408,2126.24],[112.96152,-7.92403,2127.42],[112.96155,-7.92398,2128.61],[112.96158,-7.92393,2129.8],[112.96161,-7.92389,2130.77],[112.96164,-7.92384,2129.55],[112.96167,-7.92378,2127.8],[112.96169,-7.92373,2126.03],[112.96173,-7.92369,2124.33],[112.96176,-7.92364,2122.68],[112.96179,-7.92359,2121.62],[112.96182,-7.92354,2121.26],[112.96186,-7.9235,2120.95],[112.96188,-7.92345,2120.87],[112.96191,-7.9234,2120.85],[112.96195,-7.92336,2120.9],[112.96198,-7.92331,2120.85],[112.962,-7.92325,2120.52],[112.96204,-7.92321,2120.42],[112.96207,-7.92317,2120.36],[112.9621,-7.92312,2120.32],[112.96214,-7.92307,2120.44],[112.96217,-7.92303,2120.72],[112.96221,-7.92299,2121.15],[112.96225,-7.92295,2122.23],[112.96229,-7.92291,2123.45],[112.96232,-7.92286,2124.23],[112.96231,-7.92281,2123.93],[112.96231,-7.92275,2124.65],[112.96233,-7.92271,2126.31],[112.96233,-7.9227,2126.6],[112.96236,-7.92266,2128.78],[112.96239,-7.92261,2131.56],[112.96241,-7.92256,2134.22],[112.96242,-7.92251,2136.58],[112.96244,-7.92246,2138.65],[112.96244,-7.92241,2139.48],[112.96244,-7.92241,2139.48],[112.96244,-7.92241,2139.48],[112.96244,-7.92241,2139.48],[112.96247,-7.92234,2141.98],[112.96251,-7.92233,2144.38],[112.96256,-7.92232,2149.2],[112.96261,-7.92232,2153.87],[112.96266,-7.92232,2158.54],[112.96273,-7.92231,2165.31],[112.96278,-7.92229,2170.54],[112.96282,-7.92231,2174.45],[112.96288,-7.92232,2180.81],[112.96291,-7.92233,2183.86],[112.96294,-7.9223,2187.98],[112.96294,-7.92224,2189.62],[112.96293,-7.92219,2190.82],[112.96292,-7.92214,2192.7],[112.96291,-7.92209,2194.78],[112.9629,-7.92204,2197.05],[112.96289,-7.92199,2199.52],[112.9629,-7.92196,2202.07],[112.96293,-7.92198,2202.75],[112.96297,-7.92202,2203.37],[112.96301,-7.92206,2204.61],[112.96306,-7.9221,2207.14],[112.9631,-7.92214,2207.62],[112.96314,-7.92218,2208.35],[112.96318,-7.92223,2209.2],[112.96321,-7.92227,2210.56],[112.96322,-7.92229,2211.07],[112.96324,-7.92232,2212.28],[112.96326,-7.92236,2213.72],[112.96329,-7.9224,2216.18],[112.96334,-7.92238,2219.37],[112.96336,-7.92233,2218.91],[112.96338,-7.92227,2218.25],[112.96339,-7.92222,2217.63],[112.96337,-7.92217,2217.91],[112.96337,-7.92212,2218.4],[112.96336,-7.92207,2218.83],[112.96336,-7.92205,2219.03],[112.96336,-7.92205,2219.03],[112.96331,-7.9218,2220.67],[112.96329,-7.92176,2220.81],[112.96328,-7.92171,2221.29],[112.96333,-7.9217,2221.74],[112.96337,-7.92173,2221.37],[112.96341,-7.92176,2221.05],[112.9635,-7.92181,2220.7]]}}]}