{"type":"FeatureCollection","features":[{"type":"Feature","properties":{"name":"tumpak-sewu-waterfall","slug":"tumpak-sewu-waterfall","description":"<![CDATA[]]>","source":"AllTrails.com"},"geometry":{"type":"LineString","coordinates":[[112.91997,-8.23028,567.66],[112.91978,-8.2303,565.82],[112.91973,-8.23032,565.24],[112.91969,-8.23035,563.71],[112.91965,-8.23038,561.89],[112.91962,-8.23042,560.12],[112.91958,-8.23046,557.95],[112.91957,-8.2305,556.74],[112.91954,-8.23054,554.79],[112.9195,-8.23058,552.68],[112.91946,-8.23061,551.08],[112.91942,-8.23065,550.61],[112.91938,-8.23069,550.63],[112.91936,-8.23073,550.31],[112.91934,-8.23078,549.74],[112.91933,-8.23083,549.05],[112.91932,-8.23087,548.28],[112.9193,-8.23092,547.28],[112.91927,-8.23096,546.43],[112.91925,-8.231,545.58],[112.91924,-8.23105,544.53],[112.91924,-8.2311,543.49],[112.91924,-8.23116,541.81],[112.91924,-8.2312,540.62],[112.91924,-8.23125,539.13],[112.91924,-8.2313,537.64],[112.91923,-8.23134,536.45],[112.91919,-8.23138,535.26],[112.91915,-8.23141,534.7],[112.9191,-8.23144,534.4],[112.91904,-8.23144,534.84],[112.91899,-8.23144,535.22],[112.91894,-8.23145,535.23],[112.91888,-8.23146,535.1],[112.91883,-8.23147,534.24],[112.91877,-8.23149,532.83],[112.91872,-8.23151,531.46],[112.91868,-8.23154,529.69],[112.91863,-8.23156,528.21],[112.91857,-8.23156,528.11],[112.91852,-8.23156,528.25],[112.91847,-8.23156,528.39],[112.91847,-8.23156,528.39],[112.9184,-8.23154,528.92],[112.9184,-8.23159,528.08],[112.91841,-8.23164,527.1],[112.91841,-8.23169,525.38],[112.9184,-8.23173,523.36],[112.91835,-8.23176,522.15],[112.91831,-8.23177,521.2],[112.91825,-8.23179,518.95],[112.9182,-8.23181,517.14],[112.91815,-8.23182,515.95],[112.9181,-8.23184,514.55],[112.91806,-8.23184,514.06],[112.91801,-8.23183,512],[112.91797,-8.23181,510.56],[112.91794,-8.23177,510.2],[112.9179,-8.23173,509.34],[112.91788,-8.23169,509.48],[112.91785,-8.23164,509.26],[112.91782,-8.23161,508.49],[112.91781,-8.2316,508.25],[112.91782,-8.23161,508.49],[112.91785,-8.23164,509.26],[112.91788,-8.23169,509.48],[112.9179,-8.23173,509.34],[112.91794,-8.23177,510.2],[112.91797,-8.23181,510.56],[112.91801,-8.23183,512],[112.91806,-8.23184,514.06],[112.9181,-8.23184,514.55],[112.91815,-8.23182,515.95],[112.9182,-8.23181,517.14],[112.91825,-8.23179,518.95],[112.91831,-8.23177,521.2],[112.91835,-8.23176,522.15],[112.9184,-8.23173,523.36],[112.91841,-8.23169,525.38],[112.91841,-8.23164,527.1],[112.9184,-8.23159,528.08],[112.9184,-8.23154,528.92],[112.91847,-8.23156,528.39],[112.91847,-8.23156,528.39],[112.91852,-8.23156,528.25],[112.91857,-8.23156,528.11],[112.91863,-8.23156,528.21],[112.91868,-8.23154,529.69],[112.91872,-8.23151,531.46],[112.91877,-8.23149,532.83],[112.91883,-8.23147,534.24],[112.91888,-8.23146,535.1],[112.91894,-8.23145,535.23],[112.91899,-8.23144,535.22],[112.91904,-8.23144,534.84],[112.9191,-8.23144,534.4],[112.91915,-8.23141,534.7],[112.91919,-8.23138,535.26],[112.91923,-8.23134,536.45],[112.91924,-8.2313,537.64],[112.91924,-8.23125,539.13],[112.91924,-8.2312,540.62],[112.91924,-8.23116,541.81],[112.91924,-8.2311,543.49],[112.91924,-8.23105,544.53],[112.91925,-8.231,545.58],[112.91927,-8.23096,546.43],[112.9193,-8.23092,547.28],[112.91932,-8.23087,548.28],[112.91933,-8.23083,549.05],[112.91934,-8.23078,549.74],[112.91936,-8.23073,550.31],[112.91938,-8.23069,550.63],[112.91942,-8.23065,550.61],[112.91946,-8.23061,551.08],[112.9195,-8.23058,552.68],[112.91954,-8.23054,554.79],[112.91957,-8.2305,556.74],[112.91958,-8.23046,557.95],[112.91962,-8.23042,560.12],[112.91965,-8.23038,561.89],[112.91969,-8.23035,563.71],[112.91973,-8.23032,565.24],[112.91978,-8.2303,565.82],[112.91997,-8.23028,567.66]]}}]}